[
    [
        "GPS BIIR-5  (PRN 22)",
        "1 26407U 00040A   26135.88699484  .00000044  00000+0  00000+0 0  9992",
        "2 26407  54.8568 216.4453 0121402 302.3518  59.6987  2.00557364189301"
    ],
    [
        "GPS BIIR-8  (PRN 16)",
        "1 27663U 03005A   26136.21155674  .00000045  00000+0  00000+0 0  9998",
        "2 27663  54.8877 216.2394 0148008  53.0139 318.9279  2.00562211170673"
    ],
    [
        "GPS BIIR-11 (PRN 19)",
        "1 28190U 04009A   26133.74174988 -.00000036  00000+0  00000+0 0  9994",
        "2 28190  54.8595 277.0782 0114536 171.5512  11.0195  2.00555769162255"
    ],
    [
        "GPS BIIR-13 (PRN 02)",
        "1 28474U 04045A   26136.15943391 -.00000059  00000+0  00000+0 0  9994",
        "2 28474  55.1548 326.1858 0169887 315.5685 237.6800  2.00554333157789"
    ],
    [
        "GPS BIIRM-1 (PRN 17)",
        "1 28874U 05038A   26134.51764315 -.00000035  00000+0  00000+0 0  9990",
        "2 28874  54.9068 274.5356 0127708 295.9459 114.0856  2.00567927151160"
    ],
    [
        "GPS BIIRM-2 (PRN 31)",
        "1 29486U 06042A   26136.10317064  .00000099  00000+0  00000+0 0  9997",
        "2 29486  54.7058 152.6126 0106160  53.7542 319.0966  2.00571613143752"
    ],
    [
        "GPS BIIRM-3 (PRN 12)",
        "1 29601U 06052A   26135.51120157  .00000044  00000+0  00000+0 0  9996",
        "2 29601  54.9394 215.3015 0085823  90.5256 270.5219  2.00556297142755"
    ],
    [
        "GPS BIIRM-4 (PRN 15)",
        "1 32260U 07047A   26135.81598113 -.00000013  00000+0  00000+0 0  9997",
        "2 32260  54.0724  81.3993 0165419  86.7831 275.0723  2.00556802136160"
    ],
    [
        "GPS BIIRM-5 (PRN 29)",
        "1 32384U 07062A   26135.88162486 -.00000033  00000+0  00000+0 0  9990",
        "2 32384  55.0587 275.4507 0035090 163.5278  10.8819  2.00557999134866"
    ],
    [
        "GPS BIIRM-6 (PRN 07)",
        "1 32711U 08012A   26135.23152674  .00000107  00000+0  00000+0 0  9998",
        "2 32711  54.4918 151.2413 0210419 247.3965 110.4178  2.00571513133099"
    ],
    [
        "GPS BIIRM-8 (PRN 05)",
        "1 35752U 09043A   26135.95755098 -.00000072  00000+0  00000+0 0  9991",
        "2 35752  56.1909  28.7178 0053351  81.9404  94.4018  2.00555906122711"
    ],
    [
        "GPS BIIF-1  (PRN 25)",
        "1 36585U 10022A   26135.04828097  .00000050  00000+0  00000+0 0  9990",
        "2 36585  54.2737 209.8972 0126448  66.1124 291.3238  2.00560732116921"
    ],
    [
        "GPS BIIF-3  (PRN 24)",
        "1 38833U 12053A   26135.41087325  .00000100  00000+0  00000+0 0  9992",
        "2 38833  53.5793 144.9420 0178656  65.3310 296.5639  2.00566887 98788"
    ],
    [
        "GPS BIIF-4  (PRN 27)",
        "1 39166U 13023A   26135.27691818 -.00000031  00000+0  00000+0 0  9996",
        "2 39166  54.5310 270.3138 0141799  50.8427 310.3815  2.00563577 95220"
    ],
    [
        "GPS BIIF-5  (PRN 30)",
        "1 39533U 14008A   26135.27812639  .00000105  00000+0  00000+0 0  9995",
        "2 39533  53.6484 150.6619 0084088 230.6408 128.6651  2.00557645 89026"
    ],
    [
        "GPS BIIF-6  (PRN 06)",
        "1 39741U 14026A   26135.55360978 -.00000056  00000+0  00000+0 0  9997",
        "2 39741  56.5135 332.7879 0038584 326.8799  32.9058  2.00563313 87883"
    ],
    [
        "GPS BIIF-7  (PRN 09)",
        "1 40105U 14045A   26134.14895784  .00000019  00000+0  00000+0 0  9994",
        "2 40105  55.3318  89.8204 0032082 118.7363 241.5584  2.00556087 85399"
    ],
    [
        "GPS BIIF-8  (PRN 03)",
        "1 40294U 14068A   26134.02160300 -.00000070  00000+0  00000+0 0  9992",
        "2 40294  56.9651  32.2713 0066015  69.3905 291.3455  2.00573953 84523"
    ],
    [
        "GPS BIIF-9  (PRN 26)",
        "1 40534U 15013A   26136.15188545  .00000059  00000+0  00000+0 0  9993",
        "2 40534  53.1709 205.5027 0109015  40.0329 320.8482  2.00553250 81185"
    ],
    [
        "GPS BIIF-10 (PRN 08)",
        "1 40730U 15033A   26135.31379536 -.00000030  00000+0  00000+0 0  9992",
        "2 40730  54.0093 268.4414 0115002  30.0711 330.5578  2.00557884 79339"
    ],
    [
        "GPS BIIF-11 (PRN 10)",
        "1 41019U 15062A   26135.86969332 -.00000069  00000+0  00000+0 0  9996",
        "2 41019  56.9386  32.0564 0111322 231.3601 127.6732  2.00566899 77186"
    ],
    [
        "GPS BIIF-12 (PRN 32)",
        "1 41328U 16007A   26135.95855546  .00000007  00000+0  00000+0 0  9991",
        "2 41328  55.5050  90.7367 0096080 247.2677 111.6805  2.00553157 75192"
    ],
    [
        "GPS BIII-1  (PRN 04)",
        "1 43873U 18109A   26136.12034041  .00000011  00000+0  00000+0 0  9997",
        "2 43873  55.6634  93.4515 0037986 198.6854 171.4968  2.00560025 54439"
    ],
    [
        "GPS BIII-2  (PRN 18)",
        "1 44506U 19056A   26135.98166581 -.00000060  00000+0  00000+0 0  9996",
        "2 44506  55.6526 332.4228 0060472 197.4166 335.4017  2.00569160 49428"
    ],
    [
        "GPS BIII-3  (PRN 23)",
        "1 45854U 20041A   26136.09318970 -.00000070  00000+0  00000+0 0  9994",
        "2 45854  56.6497  30.1892 0062712 204.8386 348.2040  2.00559119 43399"
    ],
    [
        "GPS BIII-4  (PRN 14)",
        "1 46826U 20078A   26135.59868263  .00000049  00000+0  00000+0 0  9998",
        "2 46826  53.9843 212.1007 0072103 206.2667 325.0236  2.00564727 40856"
    ],
    [
        "GPS BIII-5  (PRN 11)",
        "1 48859U 21054A   26135.61730148 -.00000060  00000+0  00000+0 0  9998",
        "2 48859  55.1890 333.7690 0024525 229.1462 141.4716  2.00570907 36103"
    ],
    [
        "GPS BIII-6  (PRN 28)",
        "1 55268U 23009A   26135.54755501  .00000105  00000+0  00000+0 0  9993",
        "2 55268  55.1175 149.8019 0006007 314.8786  43.2349  2.00573672 24580"
    ],
    [
        "GPS BIII-7  (PRN 01)",
        "1 62339U 24242A   26136.17689848 -.00000064  00000+0  00000+0 0  9995",
        "2 62339  54.8632 335.4791 0017143   3.2214 171.9079  2.00570749 10619"
    ],
    [
        "GPS BIII-8  (PRN 21)",
        "1 64202U 25116A   26131.73938987 -.00000072  00000+0  00000+0 0  9994",
        "2 64202  55.2115  32.5982 0008550 334.4876  58.4969  2.00578431  7140"
    ],
    [
        "GPS BIII-9  (PRN 20)",
        "1 67588U 26017A   26133.29810109  .00000027  00000+0  00000+0 0  9992",
        "2 67588  55.0667  90.1549 0023003 255.4228 104.2985  2.00571815430914"
    ]
]